ERS-1                   
1 21574U 91050A   26083.01655452  .00000305  00000+0  11195-3 0  9998
2 21574  98.7871 101.6108 0032440 158.0203 202.2383 14.39459736817793
ARIANE 40 R/B           
1 21610U 91050F   26083.17211126  .00000304  00000+0  10334-3 0  9995
2 21610  98.1982 134.8630 0003807  49.0244 311.1275 14.42903691821083
INTERCOSMOS 25          
1 21819U 91086A   26083.10372222  .00001514  00000+0  28947-3 0  9996
2 21819  82.6021 301.2953 1486710  85.8755 291.0254 12.12048142498436
SL-8 R/B                
1 21876U 92008B   26083.21491939  .00000005  00000+0 -11249-4 0  9996
2 21876  82.9225 256.9700 0035937  94.0962  78.0460 13.75969555711414
SL-8 R/B                
1 21938U 92020B   26083.24023468  .00000034  00000+0  19746-4 0  9991
2 21938  82.9313 142.9588 0027621 256.2200 165.7521 13.75550401703135
USA 81                  
1 21949U 92023A   26083.18918751  .00000163  00000+0  53119-4 0  9992
2 21949  85.0057 123.0743 0001975  68.6552 291.4851 14.32372498 96868
COSMOS 2219             
1 22219U 92076A   26083.16376625 -.00000183  00000+0 -71470-4 0  9991
2 22219  71.0635 347.8140 0018142 186.2784 173.8114 14.14092401720425
SL-16 R/B               
1 22220U 92076B   26083.24019925  .00000164  00000+0  10574-3 0  9993
2 22220  71.0006 157.7259 0010622  69.2713 352.3129 14.16863318723894
COSMOS 2221             
1 22236U 92080A   26082.94894972  .00002007  00000+0  17513-3 0  9992
2 22236  82.5003 265.4181 0015193 140.5035 219.7298 14.96255768782928
SL-16 R/B               
1 22285U 92093B   26083.15621223  .00000342  00000+0  19924-3 0  9999
2 22285  71.0236 333.8993 0006354 279.3439  80.6965 14.15451586715202
COSMOS 2228             
1 22286U 92094A   26083.28994636  .00002283  00000+0  19443-3 0  9998
2 22286  82.5181 223.3301 0016651 251.2942 108.6473 14.97262365778247
SL-16 R/B               
1 22566U 93016B   26082.98601951 -.00000203  00000+0 -79666-4 0  9991
2 22566  71.0080 185.1566 0012360 295.6000  64.3845 14.15306023704191
