CCSDS_OMM_VERS = 2.0
CREATION_DATE  = 
ORIGINATOR     = 

OBJECT_NAME    = ERS-1
OBJECT_ID      = 1991-050A
CENTER_NAME    = EARTH
REF_FRAME      = TEME
TIME_SYSTEM    = UTC
MEAN_ELEMENT_THEORY = SGP/SGP4

EPOCH          = 2026-03-24T00:23:50.310528
MEAN_MOTION    = 14.39459736
ECCENTRICITY   = .00324406
INCLINATION    = 98.7871
RA_OF_ASC_NODE = 101.6108
ARG_OF_PERICENTER = 158.0203
MEAN_ANOMALY   = 202.2383

EPHEMERIS_TYPE = 0
CLASSIFICATION_TYPE = U
NORAD_CAT_ID   = 21574
ELEMENT_SET_NO = 999
REV_AT_EPOCH   = 81779
BSTAR          = .11195166E-3
MEAN_MOTION_DOT = .305E-5
MEAN_MOTION_DDOT = 0

CCSDS_OMM_VERS = 2.0
CREATION_DATE  = 
ORIGINATOR     = 

OBJECT_NAME    = ARIANE 40 R/B
OBJECT_ID      = 1991-050F
CENTER_NAME    = EARTH
REF_FRAME      = TEME
TIME_SYSTEM    = UTC
MEAN_ELEMENT_THEORY = SGP/SGP4

EPOCH          = 2026-03-24T04:07:50.412864
MEAN_MOTION    = 14.42903691
ECCENTRICITY   = .00038077
INCLINATION    = 98.1982
RA_OF_ASC_NODE = 134.8630
ARG_OF_PERICENTER = 49.0244
MEAN_ANOMALY   = 311.1275

EPHEMERIS_TYPE = 0
CLASSIFICATION_TYPE = U
NORAD_CAT_ID   = 21610
ELEMENT_SET_NO = 999
REV_AT_EPOCH   = 82108
BSTAR          = .10333504E-3
MEAN_MOTION_DOT = .304E-5
MEAN_MOTION_DDOT = 0

CCSDS_OMM_VERS = 2.0
CREATION_DATE  = 
ORIGINATOR     = 

OBJECT_NAME    = INTERCOSMOS 25
OBJECT_ID      = 1991-086A
CENTER_NAME    = EARTH
REF_FRAME      = TEME
TIME_SYSTEM    = UTC
MEAN_ELEMENT_THEORY = SGP/SGP4

EPOCH          = 2026-03-24T02:29:21.599808
MEAN_MOTION    = 12.12048142
ECCENTRICITY   = .14867107
INCLINATION    = 82.6021
RA_OF_ASC_NODE = 301.2953
ARG_OF_PERICENTER = 85.8755
MEAN_ANOMALY   = 291.0254

EPHEMERIS_TYPE = 0
CLASSIFICATION_TYPE = U
NORAD_CAT_ID   = 21819
ELEMENT_SET_NO = 999
REV_AT_EPOCH   = 49843
BSTAR          = .28946583E-3
MEAN_MOTION_DOT = .1514E-4
MEAN_MOTION_DDOT = 0

CCSDS_OMM_VERS = 2.0
CREATION_DATE  = 
ORIGINATOR     = 

OBJECT_NAME    = SL-8 R/B
OBJECT_ID      = 1992-008B
CENTER_NAME    = EARTH
REF_FRAME      = TEME
TIME_SYSTEM    = UTC
MEAN_ELEMENT_THEORY = SGP/SGP4

EPOCH          = 2026-03-24T05:09:29.035296
MEAN_MOTION    = 13.75969555
ECCENTRICITY   = .00359374
INCLINATION    = 82.9225
RA_OF_ASC_NODE = 256.9700
ARG_OF_PERICENTER = 94.0962
MEAN_ANOMALY   = 78.0460

EPHEMERIS_TYPE = 0
CLASSIFICATION_TYPE = U
NORAD_CAT_ID   = 21876
ELEMENT_SET_NO = 999
REV_AT_EPOCH   = 71141
BSTAR          = -.11249196E-4
MEAN_MOTION_DOT = .5E-7
MEAN_MOTION_DDOT = 0

CCSDS_OMM_VERS = 2.0
CREATION_DATE  = 
ORIGINATOR     = 

OBJECT_NAME    = SL-8 R/B
OBJECT_ID      = 1992-020B
CENTER_NAME    = EARTH
REF_FRAME      = TEME
TIME_SYSTEM    = UTC
MEAN_ELEMENT_THEORY = SGP/SGP4

EPOCH          = 2026-03-24T05:45:56.276352
MEAN_MOTION    = 13.75550401
ECCENTRICITY   = .00276213
INCLINATION    = 82.9313
RA_OF_ASC_NODE = 142.9588
ARG_OF_PERICENTER = 256.2200
MEAN_ANOMALY   = 165.7521

EPHEMERIS_TYPE = 0
CLASSIFICATION_TYPE = U
NORAD_CAT_ID   = 21938
ELEMENT_SET_NO = 999
REV_AT_EPOCH   = 70313
BSTAR          = .1974578E-4
MEAN_MOTION_DOT = .34E-6
MEAN_MOTION_DDOT = 0

CCSDS_OMM_VERS = 2.0
CREATION_DATE  = 
ORIGINATOR     = 

OBJECT_NAME    = USA 81
OBJECT_ID      = 1992-023A
CENTER_NAME    = EARTH
REF_FRAME      = TEME
TIME_SYSTEM    = UTC
MEAN_ELEMENT_THEORY = SGP/SGP4

EPOCH          = 2026-03-24T04:32:25.800864
MEAN_MOTION    = 14.32372498
ECCENTRICITY   = .00019758
INCLINATION    = 85.0057
RA_OF_ASC_NODE = 123.0743
ARG_OF_PERICENTER = 68.6552
MEAN_ANOMALY   = 291.4851

EPHEMERIS_TYPE = 0
CLASSIFICATION_TYPE = U
NORAD_CAT_ID   = 21949
ELEMENT_SET_NO = 999
REV_AT_EPOCH   = 9686
BSTAR          = .53119267E-4
MEAN_MOTION_DOT = .163E-5
MEAN_MOTION_DDOT = 0

CCSDS_OMM_VERS = 2.0
CREATION_DATE  = 
ORIGINATOR     = 

OBJECT_NAME    = COSMOS 2219
OBJECT_ID      = 1992-076A
CENTER_NAME    = EARTH
REF_FRAME      = TEME
TIME_SYSTEM    = UTC
MEAN_ELEMENT_THEORY = SGP/SGP4

EPOCH          = 2026-03-24T03:55:49.404000
MEAN_MOTION    = 14.14092401
ECCENTRICITY   = .00181427
INCLINATION    = 71.0635
RA_OF_ASC_NODE = 347.8140
ARG_OF_PERICENTER = 186.2784
MEAN_ANOMALY   = 173.8114

EPHEMERIS_TYPE = 0
CLASSIFICATION_TYPE = U
NORAD_CAT_ID   = 22219
ELEMENT_SET_NO = 999
REV_AT_EPOCH   = 72042
BSTAR          = -.71470302E-4
MEAN_MOTION_DOT = -.183E-5
MEAN_MOTION_DDOT = 0

CCSDS_OMM_VERS = 2.0
CREATION_DATE  = 
ORIGINATOR     = 

OBJECT_NAME    = SL-16 R/B
OBJECT_ID      = 1992-076B
CENTER_NAME    = EARTH
REF_FRAME      = TEME
TIME_SYSTEM    = UTC
MEAN_ELEMENT_THEORY = SGP/SGP4

EPOCH          = 2026-03-24T05:45:53.215200
MEAN_MOTION    = 14.16863318
ECCENTRICITY   = .00106226
INCLINATION    = 71.0006
RA_OF_ASC_NODE = 157.7259
ARG_OF_PERICENTER = 69.2713
MEAN_ANOMALY   = 352.3129

EPHEMERIS_TYPE = 0
CLASSIFICATION_TYPE = U
NORAD_CAT_ID   = 22220
ELEMENT_SET_NO = 999
REV_AT_EPOCH   = 72389
BSTAR          = .10574043E-3
MEAN_MOTION_DOT = .164E-5
MEAN_MOTION_DDOT = 0

CCSDS_OMM_VERS = 2.0
CREATION_DATE  = 
ORIGINATOR     = 

OBJECT_NAME    = COSMOS 2221
OBJECT_ID      = 1992-080A
CENTER_NAME    = EARTH
REF_FRAME      = TEME
TIME_SYSTEM    = UTC
MEAN_ELEMENT_THEORY = SGP/SGP4

EPOCH          = 2026-03-23T22:46:29.255808
MEAN_MOTION    = 14.96255768
ECCENTRICITY   = .00151938
INCLINATION    = 82.5003
RA_OF_ASC_NODE = 265.4181
ARG_OF_PERICENTER = 140.5035
MEAN_ANOMALY   = 219.7298

EPHEMERIS_TYPE = 0
CLASSIFICATION_TYPE = U
NORAD_CAT_ID   = 22236
ELEMENT_SET_NO = 999
REV_AT_EPOCH   = 78292
BSTAR          = .17513225E-3
MEAN_MOTION_DOT = .2007E-4
MEAN_MOTION_DDOT = 0

CCSDS_OMM_VERS = 2.0
CREATION_DATE  = 
ORIGINATOR     = 

OBJECT_NAME    = SL-16 R/B
OBJECT_ID      = 1992-093B
CENTER_NAME    = EARTH
REF_FRAME      = TEME
TIME_SYSTEM    = UTC
MEAN_ELEMENT_THEORY = SGP/SGP4

EPOCH          = 2026-03-24T03:44:56.736672
MEAN_MOTION    = 14.15451586
ECCENTRICITY   = .00063549
INCLINATION    = 71.0236
RA_OF_ASC_NODE = 333.8993
ARG_OF_PERICENTER = 279.3439
MEAN_ANOMALY   = 80.6965

EPHEMERIS_TYPE = 0
CLASSIFICATION_TYPE = U
NORAD_CAT_ID   = 22285
ELEMENT_SET_NO = 999
REV_AT_EPOCH   = 71520
BSTAR          = .19924415E-3
MEAN_MOTION_DOT = .342E-5
MEAN_MOTION_DDOT = 0

CCSDS_OMM_VERS = 2.0
CREATION_DATE  = 
ORIGINATOR     = 

OBJECT_NAME    = COSMOS 2228
OBJECT_ID      = 1992-094A
CENTER_NAME    = EARTH
REF_FRAME      = TEME
TIME_SYSTEM    = UTC
MEAN_ELEMENT_THEORY = SGP/SGP4

EPOCH          = 2026-03-24T06:57:31.365504
MEAN_MOTION    = 14.97262365
ECCENTRICITY   = .00166512
INCLINATION    = 82.5181
RA_OF_ASC_NODE = 223.3301
ARG_OF_PERICENTER = 251.2942
MEAN_ANOMALY   = 108.6473

EPHEMERIS_TYPE = 0
CLASSIFICATION_TYPE = U
NORAD_CAT_ID   = 22286
ELEMENT_SET_NO = 999
REV_AT_EPOCH   = 77824
BSTAR          = .19443264E-3
MEAN_MOTION_DOT = .2283E-4
MEAN_MOTION_DDOT = 0

CCSDS_OMM_VERS = 2.0
CREATION_DATE  = 
ORIGINATOR     = 

OBJECT_NAME    = SL-16 R/B
OBJECT_ID      = 1993-016B
CENTER_NAME    = EARTH
REF_FRAME      = TEME
TIME_SYSTEM    = UTC
MEAN_ELEMENT_THEORY = SGP/SGP4

EPOCH          = 2026-03-23T23:39:52.085664
MEAN_MOTION    = 14.15306023
ECCENTRICITY   = .00123606
INCLINATION    = 71.0080
RA_OF_ASC_NODE = 185.1566
ARG_OF_PERICENTER = 295.6000
MEAN_ANOMALY   = 64.3845

EPHEMERIS_TYPE = 0
CLASSIFICATION_TYPE = U
NORAD_CAT_ID   = 22566
ELEMENT_SET_NO = 999
REV_AT_EPOCH   = 70419
BSTAR          = -.79666288E-4
MEAN_MOTION_DOT = -.203E-5
MEAN_MOTION_DDOT = 0

